KRNO 231455Z 01007KT 10SM SCT034 BKN044 04/M01 A3008 RMK AO2 RAE19 SLP178 SH VC SW MTN TOPS OBSCD SE DSNT SW AND W P0001 60001 T00391011 51022
